[{"OBJECT_NAME":"TIANYAN 02","OBJECT_ID":"2019-093D","EPOCH":"2026-03-09T23:02:03.462720","MEAN_MOTION":15.03854369,"ECCENTRICITY":0.0013821,"INCLINATION":97.7892,"RA_OF_ASC_NODE":162.9238,"ARG_OF_PERICENTER":3.6432,"MEAN_ANOMALY":356.4891,"EPHEMERIS_TYPE":0,"CLASSIFICATION_TYPE":"U","NORAD_CAT_ID":44882,"ELEMENT_SET_NO":999,"REV_AT_EPOCH":33769,"BSTAR":0.0006063204,"MEAN_MOTION_DOT":8.303e-5,"MEAN_MOTION_DDOT":0},{"OBJECT_NAME":"STARLINK-34970","OBJECT_ID":"2025-194S","EPOCH":"2026-03-09T13:24:00.112032","MEAN_MOTION":15.05626272,"ECCENTRICITY":0.00017003,"INCLINATION":97.6018,"RA_OF_ASC_NODE":284.1979,"ARG_OF_PERICENTER":72.0647,"MEAN_ANOMALY":288.0765,"EPHEMERIS_TYPE":0,"CLASSIFICATION_TYPE":"U","NORAD_CAT_ID":65450,"ELEMENT_SET_NO":999,"REV_AT_EPOCH":2962,"BSTAR":-0.00012112828,"MEAN_MOTION_DOT":-1.807e-5,"MEAN_MOTION_DDOT":0}]
